[
  {
    "OBJECT_NAME": "STARLINK-31625",
    "OBJECT_ID": "24068D",
    "EPOCH": "2025-11-11T03:44:28.682592",
    "MEAN_MOTION": 15.27581744,
    "ECCENTRICITY": 0.000142,
    "INCLINATION": 43.0028,
    "RA_OF_ASC_NODE": 344.0127,
    "ARG_OF_PERICENTER": 282.2117,
    "MEAN_ANOMALY": 77.8576,
    "EPHEMERIS_TYPE": 0,
    "CLASSIFICATION_TYPE": "U",
    "NORAD_CAT_ID": 59458,
    "ELEMENT_SET_NO": 999,
    "REV_AT_EPOCH": 9039,
    "BSTAR": 0.0001078,
    "MEAN_MOTION_DOT": 2.706e-05,
    "MEAN_MOTION_DDOT": 0.0,
    "TLE_LINE1": "1 59458U 24068D   25315.15588753  .00002706  00000+0  10780-3 0  9992",
    "TLE_LINE2": "2 59458  43.0028 344.0127 0001420 282.2117  77.8576 15.27581744 90396",
    "COMMENT": "Grouped by shell and plane from TLE"
  },
  {
    "OBJECT_NAME": "STARLINK-31631",
    "OBJECT_ID": "24068E",
    "EPOCH": "2025-11-11T03:04:28.177824",
    "MEAN_MOTION": 15.27567544,
    "ECCENTRICITY": 0.0001019,
    "INCLINATION": 43.003,
    "RA_OF_ASC_NODE": 340.3448,
    "ARG_OF_PERICENTER": 249.4065,
    "MEAN_ANOMALY": 110.6677,
    "EPHEMERIS_TYPE": 0,
    "CLASSIFICATION_TYPE": "U",
    "NORAD_CAT_ID": 59459,
    "ELEMENT_SET_NO": 999,
    "REV_AT_EPOCH": 9043,
    "BSTAR": 4.5906999999999994e-07,
    "MEAN_MOTION_DOT": -2.49e-06,
    "MEAN_MOTION_DDOT": 0.0,
    "TLE_LINE1": "1 59459U 24068E   25315.12810391 -.00000249  00000+0  45907-6 0  9999",
    "TLE_LINE2": "2 59459  43.0030 340.3448 0001019 249.4065 110.6677 15.27567544 90431",
    "COMMENT": "Grouped by shell and plane from TLE"
  },
  {
    "OBJECT_NAME": "STARLINK-31620",
    "OBJECT_ID": "24068F",
    "EPOCH": "2025-11-11T02:01:46.511040",
    "MEAN_MOTION": 15.27569523,
    "ECCENTRICITY": 8.87e-05,
    "INCLINATION": 43.002,
    "RA_OF_ASC_NODE": 340.8766,
    "ARG_OF_PERICENTER": 239.0169,
    "MEAN_ANOMALY": 121.0596,
    "EPHEMERIS_TYPE": 0,
    "CLASSIFICATION_TYPE": "U",
    "NORAD_CAT_ID": 59460,
    "ELEMENT_SET_NO": 999,
    "REV_AT_EPOCH": 9042,
    "BSTAR": 0.0,
    "MEAN_MOTION_DOT": -1.61e-05,
    "MEAN_MOTION_DDOT": 0.0,
    "TLE_LINE1": "1 59460U 24068F   25315.08456610 -.00001610  00000+0 -49034-4 0  9993",
    "TLE_LINE2": "2 59460  43.0020 340.8766 0000887 239.0169 121.0596 15.27569523 90426",
    "COMMENT": "Grouped by shell and plane from TLE"
  },
  {
    "OBJECT_NAME": "STARLINK-31511",
    "OBJECT_ID": "24068H",
    "EPOCH": "2025-11-11T02:19:35.120928",
    "MEAN_MOTION": 15.27603626,
    "ECCENTRICITY": 0.000105,
    "INCLINATION": 43.0002,
    "RA_OF_ASC_NODE": 344.4288,
    "ARG_OF_PERICENTER": 278.5427,
    "MEAN_ANOMALY": 81.5306,
    "EPHEMERIS_TYPE": 0,
    "CLASSIFICATION_TYPE": "U",
    "NORAD_CAT_ID": 59462,
    "ELEMENT_SET_NO": 999,
    "REV_AT_EPOCH": 9038,
    "BSTAR": 0.00047660000000000004,
    "MEAN_MOTION_DOT": 0.00012885,
    "MEAN_MOTION_DDOT": 0.0,
    "TLE_LINE1": "1 59462U 24068H   25315.09693427  .00012885  00000+0  47660-3 0  9991",
    "TLE_LINE2": "2 59462  43.0002 344.4288 0001050 278.5427  81.5306 15.27603626 90382",
    "COMMENT": "Grouped by shell and plane from TLE"
  },
  {
    "OBJECT_NAME": "STARLINK-31364",
    "OBJECT_ID": "24068J",
    "EPOCH": "2025-11-11T03:15:34.304544",
    "MEAN_MOTION": 15.27576707,
    "ECCENTRICITY": 0.000159,
    "INCLINATION": 43.0041,
    "RA_OF_ASC_NODE": 340.4032,
    "ARG_OF_PERICENTER": 273.7933,
    "MEAN_ANOMALY": 86.2737,
    "EPHEMERIS_TYPE": 0,
    "CLASSIFICATION_TYPE": "U",
    "NORAD_CAT_ID": 59463,
    "ELEMENT_SET_NO": 999,
    "REV_AT_EPOCH": 9043,
    "BSTAR": 8.0166e-05,
    "MEAN_MOTION_DOT": 1.944e-05,
    "MEAN_MOTION_DDOT": 0.0,
    "TLE_LINE1": "1 59463U 24068J   25315.13581371  .00001944  00000+0  80166-4 0  9994",
    "TLE_LINE2": "2 59463  43.0041 340.4032 0001590 273.7933  86.2737 15.27576707 90432",
    "COMMENT": "Grouped by shell and plane from TLE"
  },
  {
    "OBJECT_NAME": "STARLINK-31597",
    "OBJECT_ID": "24068K",
    "EPOCH": "2025-11-11T02:04:46.790688",
    "MEAN_MOTION": 15.27577442,
    "ECCENTRICITY": 0.0001138,
    "INCLINATION": 43.002,
    "RA_OF_ASC_NODE": 344.3504,
    "ARG_OF_PERICENTER": 224.3694,
    "MEAN_ANOMALY": 135.7066,
    "EPHEMERIS_TYPE": 0,
    "CLASSIFICATION_TYPE": "U",
    "NORAD_CAT_ID": 59464,
    "ELEMENT_SET_NO": 999,
    "REV_AT_EPOCH": 9033,
    "BSTAR": 0.00011497,
    "MEAN_MOTION_DOT": 2.903e-05,
    "MEAN_MOTION_DDOT": 0.0,
    "TLE_LINE1": "1 59464U 24068K   25315.08665267  .00002903  00000+0  11497-3 0  9992",
    "TLE_LINE2": "2 59464  43.0020 344.3504 0001138 224.3694 135.7066 15.27577442 90332",
    "COMMENT": "Grouped by shell and plane from TLE"
  },
  {
    "OBJECT_NAME": "STARLINK-31621",
    "OBJECT_ID": "24068L",
    "EPOCH": "2025-11-11T03:48:10.588032",
    "MEAN_MOTION": 15.27584224,
    "ECCENTRICITY": 0.0001417,
    "INCLINATION": 43.0009,
    "RA_OF_ASC_NODE": 344.0429,
    "ARG_OF_PERICENTER": 267.234,
    "MEAN_ANOMALY": 92.8349,
    "EPHEMERIS_TYPE": 0,
    "CLASSIFICATION_TYPE": "U",
    "NORAD_CAT_ID": 59465,
    "ELEMENT_SET_NO": 999,
    "REV_AT_EPOCH": 9039,
    "BSTAR": 1.4180000000000001e-05,
    "MEAN_MOTION_DOT": 1.28e-06,
    "MEAN_MOTION_DDOT": 0.0,
    "TLE_LINE1": "1 59465U 24068L   25315.15845588  .00000128  00000+0  14180-4 0  9997",
    "TLE_LINE2": "2 59465  43.0009 344.0429 0001417 267.2340  92.8349 15.27584224 90396",
    "COMMENT": "Grouped by shell and plane from TLE"
  },
  {
    "OBJECT_NAME": "STARLINK-31462",
    "OBJECT_ID": "24068M",
    "EPOCH": "2025-11-11T03:27:49.484736",
    "MEAN_MOTION": 15.27570416,
    "ECCENTRICITY": 0.0001181,
    "INCLINATION": 43.0047,
    "RA_OF_ASC_NODE": 343.909,
    "ARG_OF_PERICENTER": 280.128,
    "MEAN_ANOMALY": 79.9438,
    "EPHEMERIS_TYPE": 0,
    "CLASSIFICATION_TYPE": "U",
    "NORAD_CAT_ID": 59466,
    "ELEMENT_SET_NO": 999,
    "REV_AT_EPOCH": 9039,
    "BSTAR": 4.8107000000000005e-05,
    "MEAN_MOTION_DOT": 1.062e-05,
    "MEAN_MOTION_DDOT": 0.0,
    "TLE_LINE1": "1 59466U 24068M   25315.14432274  .00001062  00000+0  48107-4 0  9995",
    "TLE_LINE2": "2 59466  43.0047 343.9090 0001181 280.1280  79.9438 15.27570416 90399",
    "COMMENT": "Grouped by shell and plane from TLE"
  },
  {
    "OBJECT_NAME": "STARLINK-31592",
    "OBJECT_ID": "24068N",
    "EPOCH": "2025-11-11T02:30:40.167648",
    "MEAN_MOTION": 15.27592338,
    "ECCENTRICITY": 0.0001704,
    "INCLINATION": 43.0002,
    "RA_OF_ASC_NODE": 344.4873,
    "ARG_OF_PERICENTER": 268.6117,
    "MEAN_ANOMALY": 91.454,
    "EPHEMERIS_TYPE": 0,
    "CLASSIFICATION_TYPE": "U",
    "NORAD_CAT_ID": 59467,
    "ELEMENT_SET_NO": 999,
    "REV_AT_EPOCH": 9038,
    "BSTAR": 0.0,
    "MEAN_MOTION_DOT": -3.999e-05,
    "MEAN_MOTION_DDOT": 0.0,
    "TLE_LINE1": "1 59467U 24068N   25315.10463157 -.00003999  00000+0 -13580-3 0  9995",
    "TLE_LINE2": "2 59467  43.0002 344.4873 0001704 268.6117  91.4540 15.27592338 90386",
    "COMMENT": "Grouped by shell and plane from TLE"
  },
  {
    "OBJECT_NAME": "STARLINK-31267",
    "OBJECT_ID": "24068P",
    "EPOCH": "2025-11-11T02:14:30.540192",
    "MEAN_MOTION": 15.27562057,
    "ECCENTRICITY": 0.0001297,
    "INCLINATION": 43.0005,
    "RA_OF_ASC_NODE": 340.0647,
    "ARG_OF_PERICENTER": 284.0617,
    "MEAN_ANOMALY": 76.009,
    "EPHEMERIS_TYPE": 0,
    "CLASSIFICATION_TYPE": "U",
    "NORAD_CAT_ID": 59468,
    "ELEMENT_SET_NO": 999,
    "REV_AT_EPOCH": 9043,
    "BSTAR": 0.00013968,
    "MEAN_MOTION_DOT": 3.581e-05,
    "MEAN_MOTION_DDOT": 0.0,
    "TLE_LINE1": "1 59468U 24068P   25315.09340903  .00003581  00000+0  13968-3 0  9992",
    "TLE_LINE2": "2 59468  43.0005 340.0647 0001297 284.0617  76.0090 15.27562057 90435",
    "COMMENT": "Grouped by shell and plane from TLE"
  },
  {
    "OBJECT_NAME": "STARLINK-31381",
    "OBJECT_ID": "24068Q",
    "EPOCH": "2025-11-11T03:47:01.631328",
    "MEAN_MOTION": 15.27580537,
    "ECCENTRICITY": 0.0001589,
    "INCLINATION": 43.0007,
    "RA_OF_ASC_NODE": 340.5631,
    "ARG_OF_PERICENTER": 278.8285,
    "MEAN_ANOMALY": 81.2386,
    "EPHEMERIS_TYPE": 0,
    "CLASSIFICATION_TYPE": "U",
    "NORAD_CAT_ID": 59469,
    "ELEMENT_SET_NO": 999,
    "REV_AT_EPOCH": 9043,
    "BSTAR": 0.00015322,
    "MEAN_MOTION_DOT": 3.956e-05,
    "MEAN_MOTION_DDOT": 0.0,
    "TLE_LINE1": "1 59469U 24068Q   25315.15765777  .00003956  00000+0  15322-3 0  9992",
    "TLE_LINE2": "2 59469  43.0007 340.5631 0001589 278.8285  81.2386 15.27580537 90431",
    "COMMENT": "Grouped by shell and plane from TLE"
  },
  {
    "OBJECT_NAME": "STARLINK-31546",
    "OBJECT_ID": "24068R",
    "EPOCH": "2025-11-11T03:19:16.406976",
    "MEAN_MOTION": 15.27586599,
    "ECCENTRICITY": 0.0001161,
    "INCLINATION": 43.0011,
    "RA_OF_ASC_NODE": 340.4204,
    "ARG_OF_PERICENTER": 252.579,
    "MEAN_ANOMALY": 107.4935,
    "EPHEMERIS_TYPE": 0,
    "CLASSIFICATION_TYPE": "U",
    "NORAD_CAT_ID": 59470,
    "ELEMENT_SET_NO": 999,
    "REV_AT_EPOCH": 9043,
    "BSTAR": 0.00040424,
    "MEAN_MOTION_DOT": 0.0001088,
    "MEAN_MOTION_DDOT": 0.0,
    "TLE_LINE1": "1 59470U 24068R   25315.13838434  .00010880  00000+0  40424-3 0  9998",
    "TLE_LINE2": "2 59470  43.0011 340.4204 0001161 252.5790 107.4935 15.27586599 90434",
    "COMMENT": "Grouped by shell and plane from TLE"
  },
  {
    "OBJECT_NAME": "STARLINK-31575",
    "OBJECT_ID": "24068S",
    "EPOCH": "2025-11-11T03:30:21.951360",
    "MEAN_MOTION": 15.27581471,
    "ECCENTRICITY": 7.66e-05,
    "INCLINATION": 43.0019,
    "RA_OF_ASC_NODE": 340.4766,
    "ARG_OF_PERICENTER": 218.8803,
    "MEAN_ANOMALY": 141.1993,
    "EPHEMERIS_TYPE": 0,
    "CLASSIFICATION_TYPE": "U",
    "NORAD_CAT_ID": 59471,
    "ELEMENT_SET_NO": 999,
    "REV_AT_EPOCH": 9043,
    "BSTAR": 0.00016367,
    "MEAN_MOTION_DOT": 4.245e-05,
    "MEAN_MOTION_DDOT": 0.0,
    "TLE_LINE1": "1 59471U 24068S   25315.14608740  .00004245  00000+0  16367-3 0  9992",
    "TLE_LINE2": "2 59471  43.0019 340.4766 0000766 218.8803 141.1993 15.27581471 90439",
    "COMMENT": "Grouped by shell and plane from TLE"
  }
]